QIANFAN-9               
1 60387U 24140J   26021.45687698  .00000197  00000+0  28607-3 0  9991
2 60387  88.9781 295.2345 0018074  82.0866 278.2335 13.50987209 72695
QIANFAN-10              
1 60388U 24140K   26021.46102425  .00000239  00000+0  35068-3 0  9999
2 60388  88.9791 294.5852 0016509  61.8809 298.4008 13.50993181 72827
QIANFAN-11              
1 60389U 24140L   26021.49820967  .00000251  00000+0  36949-3 0  9994
2 60389  88.9717 295.1388 0016109  81.6764 278.6213 13.50992742 72485
QIANFAN-12              
1 60390U 24140M   26021.51870404  .00000248  00000+0  36475-3 0  9990
2 60390  88.9760 295.1974 0014875  88.7642 271.5213 13.50990205 72616
QIANFAN-13              
1 60391U 24140N   26021.48988676  .00000253  00000+0  37313-3 0  9996
2 60391  88.9773 295.3052 0014676  91.1340 269.1492 13.50990653 72633
QIANFAN-14              
1 60392U 24140P   26021.51450993  .00000236  00000+0  34578-3 0  9998
2 60392  88.9751 295.1918 0018357  91.4606 268.8648 13.50990183 72645
QIANFAN-15              
1 60393U 24140Q   26021.44875153  .00000242  00000+0  35648-3 0  9996
2 60393  88.9775 295.1645 0014240  79.1073 281.1680 13.50988637 72620
QIANFAN-16              
1 60394U 24140R   26021.51044576  .00000236  00000+0  34613-3 0  9996
2 60394  88.9778 295.2794 0016260  94.7788 265.5220 13.50994167 72542
